{
  "norad_id": 68146,
  "name": "STARLINK-36980",
  "history": [
    {
      "epoch": "2026-04-10T07:31:30.351936Z",
      "apogee_km": 328.7211268012161,
      "perigee_km": 326.80860358926293,
      "latitude_deg": -6.75199495302641e-06,
      "longitude_deg": 169.80645903741677,
      "height_km": 331.32192645783766,
      "semi_major_axis_km": 6705.901865195239,
      "eccentricity": 0.0001426,
      "inclination_deg": 97.2844,
      "raan_deg": 121.2321,
      "arg_perigee_deg": 113.6102,
      "mean_anomaly_deg": 246.5316,
      "mean_motion_rev_day": 15.80945765
    },
    {
      "epoch": "2026-04-11T20:00:01.000224Z",
      "apogee_km": 344.7346380583558,
      "perigee_km": 343.03396666885783,
      "latitude_deg": -8.292759863130536,
      "longitude_deg": -16.15258584016696,
      "height_km": 348.4964715425199,
      "semi_major_axis_km": 6722.021302363607,
      "eccentricity": 0.0001265,
      "inclination_deg": 97.2843,
      "raan_deg": 122.8372,
      "arg_perigee_deg": 81.6294,
      "mean_anomaly_deg": 270.2038,
      "mean_motion_rev_day": 15.75262503
    },
    {
      "epoch": "2026-04-13T06:00:02.000160Z",
      "apogee_km": 344.5049187914792,
      "perigee_km": 343.6345274649684,
      "latitude_deg": 77.75108993235175,
      "longitude_deg": 48.708536884964396,
      "height_km": 356.7906517789242,
      "semi_major_axis_km": 6722.2067231282235,
      "eccentricity": 6.474e-05,
      "inclination_deg": 97.2843,
      "raan_deg": 124.324,
      "arg_perigee_deg": 91.5637,
      "mean_anomaly_deg": 8.3805,
      "mean_motion_rev_day": 15.75197327
    },
    {
      "epoch": "2026-04-14T20:00:01.999008Z",
      "apogee_km": 344.50185223684275,
      "perigee_km": 343.5015979945465,
      "latitude_deg": 71.0829538561096,
      "longitude_deg": -38.79756313301496,
      "height_km": 355.82593777319903,
      "semi_major_axis_km": 6722.138725115695,
      "eccentricity": 7.44e-05,
      "inclination_deg": 97.2838,
      "raan_deg": 125.9837,
      "arg_perigee_deg": 92.8455,
      "mean_anomaly_deg": 339.5661,
      "mean_motion_rev_day": 15.75221228
    },
    {
      "epoch": "2026-04-15T07:53:30.411744Z",
      "apogee_km": 344.39367882175156,
      "perigee_km": 343.6706423068417,
      "latitude_deg": 4.014601800736713e-05,
      "longitude_deg": 164.6313188986839,
      "height_km": 347.06925872768403,
      "semi_major_axis_km": 6722.169160564296,
      "eccentricity": 5.378e-05,
      "inclination_deg": 97.2838,
      "raan_deg": 126.5005,
      "arg_perigee_deg": 68.8472,
      "mean_anomaly_deg": 291.2851,
      "mean_motion_rev_day": 15.7521053
    },
    {
      "epoch": "2026-04-16T14:23:06.248832Z",
      "apogee_km": 344.9936933398558,
      "perigee_km": 343.091316539957,
      "latitude_deg": -3.0646035467905655e-05,
      "longitude_deg": 67.31219432975529,
      "height_km": 347.1046391830947,
      "semi_major_axis_km": 6722.179504939906,
      "eccentricity": 0.0001415,
      "inclination_deg": 97.2819,
      "raan_deg": 127.833,
      "arg_perigee_deg": 83.7212,
      "mean_anomaly_deg": 276.4214,
      "mean_motion_rev_day": 15.75206894
    },
    {
      "epoch": "2026-04-17T19:21:13.053312Z",
      "apogee_km": 344.71420997809855,
      "perigee_km": 343.28669686848934,
      "latitude_deg": 2.2781694539618903e-05,
      "longitude_deg": -7.138359122935221,
      "height_km": 347.1916168682423,
      "semi_major_axis_km": 6722.137453423294,
      "eccentricity": 0.00010618,
      "inclination_deg": 97.2843,
      "raan_deg": 129.1005,
      "arg_perigee_deg": 91.9638,
      "mean_anomaly_deg": 268.1749,
      "mean_motion_rev_day": 15.75221675
    },
    {
      "epoch": "2026-04-20T14:26:19.932576Z",
      "apogee_km": 344.87416739317814,
      "perigee_km": 343.1871721947673,
      "latitude_deg": 9.135219029511682e-06,
      "longitude_deg": 66.76308355635965,
      "height_km": 347.53641091060797,
      "semi_major_axis_km": 6722.167669793973,
      "eccentricity": 0.00012548,
      "inclination_deg": 97.2847,
      "raan_deg": 132.0357,
      "arg_perigee_deg": 113.7066,
      "mean_anomaly_deg": 246.4331,
      "mean_motion_rev_day": 15.75211054
    },
    {
      "epoch": "2026-04-22T10:39:14.287104Z",
      "apogee_km": 344.9907124790652,
      "perigee_km": 343.1622704093934,
      "latitude_deg": 2.383763845168227e-05,
      "longitude_deg": 123.65415033826717,
      "height_km": 347.6385284128115,
      "semi_major_axis_km": 6722.2134914442295,
      "eccentricity": 0.000136,
      "inclination_deg": 97.2848,
      "raan_deg": 133.9691,
      "arg_perigee_deg": 115.6379,
      "mean_anomaly_deg": 244.5027,
      "mean_motion_rev_day": 15.75194948
    },
    {
      "epoch": "2026-04-24T12:58:04.478304Z",
      "apogee_km": 345.0052130070635,
      "perigee_km": 343.0521549892346,
      "latitude_deg": 3.711837024646736e-05,
      "longitude_deg": 89.07999486128034,
      "height_km": 346.6288521975201,
      "semi_major_axis_km": 6722.165683998149,
      "eccentricity": 0.00014527,
      "inclination_deg": 97.2837,
      "raan_deg": 136.1704,
      "arg_perigee_deg": 54.5628,
      "mean_anomaly_deg": 305.5773,
      "mean_motion_rev_day": 15.75211752
    }
  ]
}